BLUEBON                 
1 62688U 25009CH  26068.70316231  .00010452  00000+0  37313-3 0  9992
2 62688  97.4017 152.2033 0001193  43.3900 316.7434 15.29047253 63767
STARLINK-33718          
1 63476U 25070S   26068.58357932  .00028847  00000+0  10525-2 0  9997
2 63476  43.0027 260.0952 0001515 259.2306 100.8375 15.27617231 52968
