[{"OBJECT_NAME":"BLUEBON","OBJECT_ID":"2025-009CH","EPOCH":"2026-03-09T16:52:33.225312","MEAN_MOTION":15.29047254,"ECCENTRICITY":0.00011933,"INCLINATION":97.4017,"RA_OF_ASC_NODE":152.2033,"ARG_OF_PERICENTER":43.39,"MEAN_ANOMALY":316.7434,"EPHEMERIS_TYPE":0,"CLASSIFICATION_TYPE":"U","NORAD_CAT_ID":62688,"ELEMENT_SET_NO":999,"REV_AT_EPOCH":6376,"BSTAR":0.00037313027,"MEAN_MOTION_DOT":0.00010452,"MEAN_MOTION_DDOT":0},{"OBJECT_NAME":"STARLINK-33718","OBJECT_ID":"2025-070S","EPOCH":"2026-03-09T14:00:21.253248","MEAN_MOTION":15.27617231,"ECCENTRICITY":0.00015152,"INCLINATION":43.0027,"RA_OF_ASC_NODE":260.0952,"ARG_OF_PERICENTER":259.2306,"MEAN_ANOMALY":100.8375,"EPHEMERIS_TYPE":0,"CLASSIFICATION_TYPE":"U","NORAD_CAT_ID":63476,"ELEMENT_SET_NO":999,"REV_AT_EPOCH":5296,"BSTAR":0.0010525082,"MEAN_MOTION_DOT":0.00028847,"MEAN_MOTION_DDOT":0}]
